{
  "links" : {
    "next" : "https://api.nasa.gov/neo/rest/v1/feed?start_date=1995-09-09&end_date=1995-09-09&detailed=true&api_key=t0TVs3DtDT2H8Oy2Zy8m2eVrNsAVKAexjcZXUckd",
    "prev" : "https://api.nasa.gov/neo/rest/v1/feed?start_date=1995-09-07&end_date=1995-09-07&detailed=true&api_key=t0TVs3DtDT2H8Oy2Zy8m2eVrNsAVKAexjcZXUckd",
    "self" : "https://api.nasa.gov/neo/rest/v1/feed?start_date=1995-09-08&end_date=1995-09-08&detailed=true&api_key=t0TVs3DtDT2H8Oy2Zy8m2eVrNsAVKAexjcZXUckd"
  },
  "element_count" : 7,
  "near_earth_objects" : {
    "1995-09-08" : [ {
      "links" : {
        "self" : "https://api.nasa.gov/neo/rest/v1/neo/3625128?api_key=t0TVs3DtDT2H8Oy2Zy8m2eVrNsAVKAexjcZXUckd"
      },
      "neo_reference_id" : "3625128",
      "name" : "(2013 BR45)",
      "nasa_jpl_url" : "http://ssd.jpl.nasa.gov/sbdb.cgi?sstr=3625128",
      "absolute_magnitude_h" : 19.9,
      "estimated_diameter" : {
        "kilometers" : {
          "estimated_diameter_min" : 0.2783267681,
          "estimated_diameter_max" : 0.6223575734
        },
        "meters" : {
          "estimated_diameter_min" : 278.3267680719,
          "estimated_diameter_max" : 622.3575733667
        },
        "miles" : {
          "estimated_diameter_min" : 0.1729441822,
          "estimated_diameter_max" : 0.3867149477
        },
        "feet" : {
          "estimated_diameter_min" : 913.1455937611,
          "estimated_diameter_max" : 2041.8556210042
        }
      },
      "is_potentially_hazardous_asteroid" : false,
      "close_approach_data" : [ {
        "close_approach_date" : "1995-09-08",
        "epoch_date_close_approach" : 810543600000,
        "relative_velocity" : {
          "kilometers_per_second" : "21.8235957809",
          "kilometers_per_hour" : "78564.9448113509",
          "miles_per_hour" : "48817.2014023641"
        },
        "miss_distance" : {
          "astronomical" : "0.4392163425",
          "lunar" : "170.8551635742",
          "kilometers" : "65705832",
          "miles" : "40827712"
        },
        "orbiting_body" : "Earth"
      } ],
      "orbital_data" : {
        "orbit_id" : "20",
        "orbit_determination_date" : "2017-06-20 06:19:26",
        "orbit_uncertainty" : "2",
        "minimum_orbit_intersection" : ".0703769",
        "jupiter_tisserand_invariant" : "3.725",
        "epoch_osculation" : "2458000.5",
        "eccentricity" : ".6904175453451732",
        "semi_major_axis" : "1.810032265391183",
        "inclination" : "4.629447663932813",
        "ascending_node_longitude" : "153.6329593635456",
        "orbital_period" : "889.4630303796989",
        "perihelion_distance" : ".5603542317242395",
        "perihelion_argument" : "204.50578533573",
        "aphelion_distance" : "3.059710299058127",
        "perihelion_time" : "2457982.891146359049",
        "mean_anomaly" : "7.126982341285601",
        "mean_motion" : ".4047385756396432",
        "equinox" : "J2000"
      }
    } ]
  }
}